[{"OBJECT_NAME":"STARLINK-35376","OBJECT_ID":"2025-232P","EPOCH":"2026-03-09T12:10:11.609184","MEAN_MOTION":15.30193815,"ECCENTRICITY":0.00013059,"INCLINATION":53.1587,"RA_OF_ASC_NODE":105.0347,"ARG_OF_PERICENTER":91.242,"MEAN_ANOMALY":268.873,"EPHEMERIS_TYPE":0,"CLASSIFICATION_TYPE":"U","NORAD_CAT_ID":66018,"ELEMENT_SET_NO":999,"REV_AT_EPOCH":2340,"BSTAR":0.0010102205,"MEAN_MOTION_DOT":0.00029674,"MEAN_MOTION_DDOT":0},{"OBJECT_NAME":"CZ-2C DEB","OBJECT_ID":"2018-056F","EPOCH":"2026-03-09T10:57:26.102304","MEAN_MOTION":15.27739248,"ECCENTRICITY":0.00119172,"INCLINATION":98.1188,"RA_OF_ASC_NODE":250.032,"ARG_OF_PERICENTER":4.6998,"MEAN_ANOMALY":355.4349,"EPHEMERIS_TYPE":0,"CLASSIFICATION_TYPE":"U","NORAD_CAT_ID":43534,"ELEMENT_SET_NO":999,"REV_AT_EPOCH":41855,"BSTAR":0.00085537155,"MEAN_MOTION_DOT":0.00023193,"MEAN_MOTION_DDOT":0}]
